{
  "type": "FeatureCollection",
  "features": [
    {
      "type": "Feature",
      "properties": {
        "norad_id": 29994,
        "name": "FENGYUN 1C DEB",
        "group": "fengyun-1c-debris",
        "lat": -31.41233347636947,
        "lon": 37.74873806924986,
        "alt_km": 974.5793135144622,
        "timestamp": "2025-12-26T11:25:45.467857+00:00",
        "meta_object_name": "FENGYUN 1C DEB",
        "meta_object_id": "1999-025LU",
        "meta_epoch": "2025-12-26T01:34:28.354080",
        "meta_mean_motion": 14.02645349,
        "meta_eccentricity": 0.013012,
        "meta_inclination": 98.8263,
        "meta_ra_of_asc_node": 31.9059,
        "meta_arg_of_pericenter": 176.4138,
        "meta_mean_anomaly": 238.911,
        "meta_ephemeris_type": 0,
        "meta_classification_type": "U",
        "meta_norad_cat_id": 29994,
        "meta_element_set_no": 999,
        "meta_rev_at_epoch": 96913,
        "meta_bstar": -1.8767e-05,
        "meta_mean_motion_dot": -7.3e-07,
        "meta_mean_motion_ddot": 0,
        "tle_line1": "1 29994U 99025LU  25360.06560595 -.00000073  00000+0 -18767-4 0  9994",
        "tle_line2": "2 29994  98.8263  31.9059 0130120 176.4138 238.9110 14.02645349969135"
      },
      "geometry": {
        "type": "Point",
        "coordinates": [
          37.74873806924986,
          -31.41233347636947
        ]
      }
    },
    {
      "type": "Feature",
      "properties": {
        "norad_id": 29996,
        "name": "FENGYUN 1C DEB",
        "group": "fengyun-1c-debris",
        "lat": 51.81557817359276,
        "lon": -129.66172499486086,
        "alt_km": 834.7940813474661,
        "timestamp": "2025-12-26T11:25:45.467867+00:00",
        "meta_object_name": "FENGYUN 1C DEB",
        "meta_object_id": "1999-025LW",
        "meta_epoch": "2025-12-25T16:39:32.624640",
        "meta_mean_motion": 14.09500921,
        "meta_eccentricity": 0.01304202,
        "meta_inclination": 99.3042,
        "meta_ra_of_asc_node": 37.4994,
        "meta_arg_of_pericenter": 51.6743,
        "meta_mean_anomaly": 67.673,
        "meta_ephemeris_type": 0,
        "meta_classification_type": "U",
        "meta_norad_cat_id": 29996,
        "meta_element_set_no": 999,
        "meta_rev_at_epoch": 96319,
        "meta_bstar": 0.0018529021,
        "meta_mean_motion_dot": 3.459e-05,
        "meta_mean_motion_ddot": 0,
        "tle_line1": "1 29996U 99025LW  25359.69412760  .00003459  00000+0  18529-2 0  9996",
        "tle_line2": "2 29996  99.3042  37.4994 0130420  51.6743  67.6730 14.09500921963194"
      },
      "geometry": {
        "type": "Point",
        "coordinates": [
          -129.66172499486086,
          51.81557817359276
        ]
      }
    },
    {
      "type": "Feature",
      "properties": {
        "norad_id": 29997,
        "name": "FENGYUN 1C DEB",
        "group": "fengyun-1c-debris",
        "lat": 73.50669729144875,
        "lon": -21.3378865513398,
        "alt_km": 932.2385300482811,
        "timestamp": "2025-12-26T11:25:45.467876+00:00",
        "meta_object_name": "FENGYUN 1C DEB",
        "meta_object_id": "1999-025LX",
        "meta_epoch": "2025-12-26T01:05:07.638720",
        "meta_mean_motion": 14.00910298,
        "meta_eccentricity": 0.0080095,
        "meta_inclination": 98.8829,
        "meta_ra_of_asc_node": 10.1258,
        "meta_arg_of_pericenter": 290.3199,
        "meta_mean_anomaly": 132.8295,
        "meta_ephemeris_type": 0,
        "meta_classification_type": "U",
        "meta_norad_cat_id": 29997,
        "meta_element_set_no": 999,
        "meta_rev_at_epoch": 96576,
        "meta_bstar": 0.00078641,
        "meta_mean_motion_dot": 1.165e-05,
        "meta_mean_motion_ddot": 0,
        "tle_line1": "1 29997U 99025LX  25360.04522730  .00001165  00000+0  78641-3 0  9991",
        "tle_line2": "2 29997  98.8829  10.1258 0080095 290.3199 132.8295 14.00910298965761"
      },
      "geometry": {
        "type": "Point",
        "coordinates": [
          -21.3378865513398,
          73.50669729144875
        ]
      }
    },
    {
      "type": "Feature",
      "properties": {
        "norad_id": 29998,
        "name": "FENGYUN 1C DEB",
        "group": "fengyun-1c-debris",
        "lat": -71.23490161963525,
        "lon": -147.07429589379208,
        "alt_km": 799.742537772483,
        "timestamp": "2025-12-26T11:25:45.467884+00:00",
        "meta_object_name": "FENGYUN 1C DEB",
        "meta_object_id": "1999-025LY",
        "meta_epoch": "2025-12-26T03:31:18.685056",
        "meta_mean_motion": 14.28601952,
        "meta_eccentricity": 0.0005447,
        "meta_inclination": 99.3046,
        "meta_ra_of_asc_node": 61.4264,
        "meta_arg_of_pericenter": 256.6095,
        "meta_mean_anomaly": 103.4478,
        "meta_ephemeris_type": 0,
        "meta_classification_type": "U",
        "meta_norad_cat_id": 29998,
        "meta_element_set_no": 999,
        "meta_rev_at_epoch": 98066,
        "meta_bstar": 0.00085884,
        "meta_mean_motion_dot": 2.107e-05,
        "meta_mean_motion_ddot": 0,
        "tle_line1": "1 29998U 99025LY  25360.14674404  .00002107  00000+0  85884-3 0  9993",
        "tle_line2": "2 29998  99.3046  61.4264 0005447 256.6095 103.4478 14.28601952980660"
      },
      "geometry": {
        "type": "Point",
        "coordinates": [
          -147.07429589379208,
          -71.23490161963525
        ]
      }
    },
    {
      "type": "Feature",
      "properties": {
        "norad_id": 29999,
        "name": "FENGYUN 1C DEB",
        "group": "fengyun-1c-debris",
        "lat": -47.96778347293586,
        "lon": -6.032171899037586,
        "alt_km": 928.0121817906283,
        "timestamp": "2025-12-26T11:25:45.467894+00:00",
        "meta_object_name": "FENGYUN 1C DEB",
        "meta_object_id": "1999-025LZ",
        "meta_epoch": "2025-12-25T22:23:00.400128",
        "meta_mean_motion": 14.20154619,
        "meta_eccentricity": 0.0189791,
        "meta_inclination": 98.5776,
        "meta_ra_of_asc_node": 343.8016,
        "meta_arg_of_pericenter": 88.5542,
        "meta_mean_anomaly": 326.877,
        "meta_ephemeris_type": 0,
        "meta_classification_type": "U",
        "meta_norad_cat_id": 29999,
        "meta_element_set_no": 999,
        "meta_rev_at_epoch": 97911,
        "meta_bstar": 0.00032401,
        "meta_mean_motion_dot": 7.86e-06,
        "meta_mean_motion_ddot": 0,
        "tle_line1": "1 29999U 99025LZ  25359.93264352  .00000786  00000+0  32401-3 0  9994",
        "tle_line2": "2 29999  98.5776 343.8016 0189791  88.5542 326.8770 14.20154619979117"
      },
      "geometry": {
        "type": "Point",
        "coordinates": [
          -6.032171899037586,
          -47.96778347293586
        ]
      }
    },
    {
      "type": "Feature",
      "properties": {
        "norad_id": 30001,
        "name": "FENGYUN 1C DEB",
        "group": "fengyun-1c-debris",
        "lat": 78.71597703973501,
        "lon": -51.642414767925075,
        "alt_km": 735.2695712819268,
        "timestamp": "2025-12-26T11:25:45.467903+00:00",
        "meta_object_name": "FENGYUN 1C DEB",
        "meta_object_id": "1999-025MA",
        "meta_epoch": "2025-12-26T04:26:05.004096",
        "meta_mean_motion": 14.38780859,
        "meta_eccentricity": 0.0035998,
        "meta_inclination": 98.9581,
        "meta_ra_of_asc_node": 75.8171,
        "meta_arg_of_pericenter": 58.2455,
        "meta_mean_anomaly": 329.6706,
        "meta_ephemeris_type": 0,
        "meta_classification_type": "U",
        "meta_norad_cat_id": 30001,
        "meta_element_set_no": 999,
        "meta_rev_at_epoch": 97625,
        "meta_bstar": 0.0023715,
        "meta_mean_motion_dot": 7.302e-05,
        "meta_mean_motion_ddot": 0,
        "tle_line1": "1 30001U 99025MA  25360.18478014  .00007302  00000+0  23715-2 0  9999",
        "tle_line2": "2 30001  98.9581  75.8171 0035998  58.2455 329.6706 14.38780859976253"
      },
      "geometry": {
        "type": "Point",
        "coordinates": [
          -51.642414767925075,
          78.71597703973501
        ]
      }
    },
    {
      "type": "Feature",
      "properties": {
        "norad_id": 30003,
        "name": "FENGYUN 1C DEB",
        "group": "fengyun-1c-debris",
        "lat": 13.309730545155317,
        "lon": 157.8633513704527,
        "alt_km": 930.2470179771099,
        "timestamp": "2025-12-26T11:25:45.467912+00:00",
        "meta_object_name": "FENGYUN 1C DEB",
        "meta_object_id": "1999-025MC",
        "meta_epoch": "2025-12-25T16:25:34.328640",
        "meta_mean_motion": 13.85635284,
        "meta_eccentricity": 0.01436183,
        "meta_inclination": 99.5785,
        "meta_ra_of_asc_node": 334.765,
        "meta_arg_of_pericenter": 85.6895,
        "meta_mean_anomaly": 91.4611,
        "meta_ephemeris_type": 0,
        "meta_classification_type": "U",
        "meta_norad_cat_id": 30003,
        "meta_element_set_no": 999,
        "meta_rev_at_epoch": 95667,
        "meta_bstar": 0.00034258539,
        "meta_mean_motion_dot": 3.79e-06,
        "meta_mean_motion_ddot": 0,
        "tle_line1": "1 30003U 99025MC  25359.68442510  .00000379  00000+0  34259-3 0  9999",
        "tle_line2": "2 30003  99.5785 334.7650 0143618  85.6895  91.4611 13.85635284956673"
      },
      "geometry": {
        "type": "Point",
        "coordinates": [
          157.8633513704527,
          13.309730545155317
        ]
      }
    }
  ]
}